KUIPER-00061            
1 64521U 25134X   25273.33335648  .00051105  00000+0  42367-2 0  9992
2 64521  51.8909 218.1349 0007870  95.0266 214.2796 14.98301397  4460
KUIPER-00062            
1 64522U 25134Y   25273.33335648 -.01492629  00000+0 -15546+0 0  9992
2 64522  51.8925 224.7388 0010206 116.7868 270.5944 14.92558940  5587
KUIPER-00063            
1 64523U 25134Z   25273.16498790  .00008229  00000+0  11144-2 0  9991
2 64523  51.9001 227.8150 0004386  64.2370 295.9045 14.79655756 16237
KUIPER-00064            
1 64524U 25134AA  25273.07950628  .00009910  00000+0  13501-2 0  9992
2 64524  51.9013 225.3920 0005969 175.9198 184.1814 14.79193290 16261
KUIPER-00065            
1 64525U 25134AB  25273.26343555  .00008240  00000+0  11096-2 0  9991
2 64525  51.8996 229.6071 0011983 110.3967 249.8283 14.79857083 16205
KUIPER-00066            
1 64526U 25134AC  25273.33335648  .00057708  00000+0  28357-2 0  9995
2 64526  51.8883 219.7793 0005506 104.0059 142.1893 15.17482305  5774
KUIPER-00069            
1 64816U 25151A   25273.33335648 -.00453263  00000+0 -14217-1 0  9993
2 64816  51.8786 280.3895 0006447  65.7293  76.7924 15.34354919  4328
KUIPER-00070            
1 64817U 25151B   25269.34554759  .00005210  00000+0  71405-3 0  9993
2 64817  51.8988 312.2198 0009660  73.4729 286.7294 14.79789807 12085
